NORAD_CAT_ID,OBJECT_NAME,OBJECT_TYPE,EPOCH,MEAN_MOTION,ECCENTRICITY,INCLINATION,RA_OF_ASC_NODE,ARG_OF_PERICENTER,MEAN_ANOMALY,BSTAR,MEAN_MOTION_DOT,MEAN_MOTION_DDOT,TLE_LINE0,TLE_LINE1,TLE_LINE2,SEMIMAJOR_AXIS,PERIOD,APOGEE,PERIGEE,DECAYED
52503.0,STARLINK-3861,PAYLOAD,2022-09-03 08:00:01,15.08804777,0.0001307,53.2137,40.332,60.3103,28.7079,0.0030186999999999,0.00048036,0.0,0 STARLINK-3861,1 52503U 22049BE  22246.33334491  .00048036  00000-0  30187-2 0  9990,2 52503  53.2137  40.3320 0001307  60.3103  28.7079 15.08804777 18946,6917.988,95.44,540.757,538.9490000000002,0.0
52503.0,STARLINK-3861,PAYLOAD,2022-09-03 14:00:01,15.08847891,0.0001385999999999,53.214,39.2107,57.51,310.1808,-0.0014523,-0.00023332,0.0,0 STARLINK-3861,1 52503U 22049BE  22246.58334491 -.00023332  00000-0 -14523-2 0  9997,2 52503  53.2140  39.2107 0001386  57.5100 310.1808 15.08847891  1306,6917.856,95.437,540.68,538.762,0.0
52503.0,STARLINK-3861,PAYLOAD,2022-09-03 22:00:00,15.08824673,0.0001458,53.2136,37.7151,49.9536,329.3334,0.0022633,0.00035901,0.0,0 STARLINK-3861,1 52503U 22049BE  22246.91667824  .00035901  00000-0  22633-2 0  9997,2 52503  53.2136  37.7151 0001458  49.9536 329.3334 15.08824673 19039,6917.927,95.439,540.8009999999998,538.784,0.0
52503.0,STARLINK-3861,PAYLOAD,2022-09-04 14:00:01,15.08878238,0.0001385,53.2138,34.7214,56.7886,345.7675,-0.0010622,-0.00017171,0.0,0 STARLINK-3861,1 52503U 22049BE  22247.58335648 -.00017171  00000-0 -10622-2 0  9993,2 52503  53.2138  34.7214 0001385  56.7886 345.7675 15.08878238  1308,6917.764,95.435,540.587,538.67,0.0
52503.0,STARLINK-3861,PAYLOAD,2022-09-04 20:00:01,15.08860989,0.0001511,53.2136,33.5999,51.9458,269.2768,0.00068969,0.00010712,0.0,0 STARLINK-3861,1 52503U 22049BE  22247.83334491  .00010712  00000-0  68969-3 0  9996,2 52503  53.2136  33.5999 0001511  51.9458 269.2768 15.08860989 19177,6917.816,95.436,540.727,538.636,0.0
52503.0,STARLINK-3861,PAYLOAD,2022-09-05 14:00:01,15.08895837,0.0001441999999999,53.2133,30.2319,57.5819,19.7875,-0.0051059,-0.00080761,0.0,0 STARLINK-3861,1 52503U 22049BE  22248.58334491 -.00080761  00000-0 -51059-2 0  9993,2 52503  53.2133  30.2319 0001442  57.5819  19.7875 15.08895837 19289,6917.71,95.434,540.572,538.577,0.0
52503.0,STARLINK-3861,PAYLOAD,2022-09-05 22:00:00,15.08832159,0.0001505,53.2128,28.7358,51.6756,37.3235,-0.0005632999999999,-9.24e-05,0.0,0 STARLINK-3861,1 52503U 22049BE  22248.91667824 -.00009240  00000-0 -56330-3 0  9990,2 52503  53.2128  28.7358 0001505  51.6756  37.3235 15.08832159  1301,6917.904,95.438,540.811,538.7280000000002,0.0
52503.0,STARLINK-3861,PAYLOAD,2022-09-06 06:00:00,15.08799803,0.0001383,53.2128,27.2376,62.3021,38.2866,0.0031618,0.00050336,0.0,0 STARLINK-3861,1 52503U 22049BE  22249.25001157  .00050336  00000-0  31618-2 0  9990,2 52503  53.2128  27.2376 0001383  62.3021  38.2866 15.08799803 19388,6918.003000000002,95.44,540.825,538.911,0.0
52503.0,STARLINK-3861,PAYLOAD,2022-09-06 14:00:01,15.08844487,0.0001526,53.2129,25.7423,59.2292,52.9269,-0.0013710999999999,-0.00022045,0.0,0 STARLINK-3861,1 52503U 22049BE  22249.58334491 -.00022045  00000-0 -13711-2 0  9998,2 52503  53.2129  25.7423 0001526  59.2292  52.9269 15.08844487  1301,6917.8669999999975,95.437,540.7869999999998,538.6759999999998,0.0
52503.0,STARLINK-3861,PAYLOAD,2022-09-06 22:00:00,15.08841202,0.0001623,53.2126,24.2461,54.3136,69.4344,-0.0016328,-0.00026181,0.0,0 STARLINK-3861,1 52503U 22049BE  22249.91667824 -.00026181  00000-0 -16328-2 0  9996,2 52503  53.2126  24.2461 0001623  54.3136  69.4344 15.08841202 19482,6917.877,95.437,540.864,538.619,0.0
52503.0,STARLINK-3861,PAYLOAD,2022-09-07 14:00:01,15.08838497,0.0001665999999999,53.2128,21.2526,59.9262,86.9819,-0.0010982,-0.00017723,0.0,0 STARLINK-3861,1 52503U 22049BE  22250.58334491 -.00017723  00000-0 -10982-2 0  9994,2 52503  53.2128  21.2526 0001666  59.9262  86.9819 15.08838497 19585,6917.885,95.438,540.903,538.597,0.0
52503.0,STARLINK-3861,PAYLOAD,2022-09-07 22:00:00,15.0884711,0.0001684,53.2127,19.7563,54.2638,104.2294,-0.00051795,-8.523e-05,0.0,0 STARLINK-3861,1 52503U 22049BE  22250.91667824 -.00008523  00000-0 -51795-3 0  9996,2 52503  53.2127  19.7563 0001684  54.2638 104.2294 15.08847110  1306,6917.859,95.437,540.889,538.559,0.0
52503.0,STARLINK-3861,PAYLOAD,2022-09-08 06:00:00,15.08815699,0.0001504,53.213,18.258,59.8249,110.283,0.0020163,0.00031926,0.0,0 STARLINK-3861,1 52503U 22049BE  22251.25001157  .00031926  00000-0  20163-2 0  9990,2 52503  53.2130  18.2580 0001504  59.8249 110.2830 15.08815699 19683,6917.955,95.439,540.86,538.779,0.0
52503.0,STARLINK-3861,PAYLOAD,2022-09-08 14:00:01,15.08838196,0.0001633,53.2132,16.762999999999998,55.6275,126.0562,-0.00076308,-0.00012411,0.0,0 STARLINK-3861,1 52503U 22049BE  22251.58334491 -.00012411  00000-0 -76308-3 0  9999,2 52503  53.2132  16.7630 0001633  55.6275 126.0562 15.08838196  1304,6917.886,95.438,540.881,538.621,0.0
52503.0,STARLINK-3861,PAYLOAD,2022-09-08 22:00:00,15.08858843,0.0001644,53.2133,15.2665,50.8545,142.4188,-0.0010625,-0.00017167,0.0,0 STARLINK-3861,1 52503U 22049BE  22251.91667824 -.00017167  00000-0 -10625-2 0  9997,2 52503  53.2133  15.2665 0001644  50.8545 142.4188 15.08858843 19784,6917.823,95.436,540.825,538.5509999999998,0.0
52503.0,STARLINK-3861,PAYLOAD,2022-09-09 14:00:01,15.0884635,0.0001626,53.2139,12.2735,51.3456,165.1354,-0.00045128,-7.464e-05,0.0,0 STARLINK-3861,1 52503U 22049BE  22252.58334491 -.00007464  00000-0 -45128-3 0  9998,2 52503  53.2139  12.2735 0001626  51.3456 165.1354 15.08846350  1308,6917.861,95.437,540.851,538.601,0.0
52503.0,STARLINK-3861,PAYLOAD,2022-09-09 22:00:00,15.08863019,0.0001682,53.2139,10.777,49.4464,178.63099999999997,-0.003059,-0.00048674,0.0,0 STARLINK-3861,1 52503U 22049BE  22252.91667824 -.00048674  00000-0 -30590-2 0  9998,2 52503  53.2139  10.7770 0001682  49.4464 178.6310 15.08863019  1301,6917.81,95.436,540.839,538.511,0.0
52503.0,STARLINK-3861,PAYLOAD,2022-09-10 06:00:02,15.08819627,0.000159,53.2143,9.279,56.6191,183.1307,0.0032465,0.00051731,0.0,0 STARLINK-3861,1 52503U 22049BE  22253.25002315  .00051731  00000-0  32465-2 0  9993,2 52503  53.2143   9.2790 0001590  56.6191 183.1307 15.08819627 19982,6917.943,95.439,540.908,538.7080000000002,0.0
52503.0,STARLINK-3861,PAYLOAD,2022-09-10 14:00:01,15.08853516,0.0001696,53.2144,7.7843,51.5811,199.693,-0.0031241,-0.00049684,0.0,0 STARLINK-3861,1 52503U 22049BE  22253.58334491 -.00049684  00000-0 -31241-2 0  9999,2 52503  53.2144   7.7843 0001696  51.5811 199.6930 15.08853516 20043,6917.839,95.437,540.877,538.531,0.0
52503.0,STARLINK-3861,PAYLOAD,2022-09-10 22:00:00,15.08852575,0.0001673,53.2144,6.2876,49.1791,213.6839,-0.0037115,-0.00058895,0.0,0 STARLINK-3861,1 52503U 22049BE  22253.91667824 -.00058895  00000-0 -37115-2 0  9995,2 52503  53.2144   6.2876 0001673  49.1791 213.6839 15.08852575  1305,6917.842,95.437,540.864,538.55,0.0
52503.0,STARLINK-3861,PAYLOAD,2022-09-11 06:00:00,15.088007199999998,0.0001595999999999,53.2147,4.7899,57.8033,216.6518,0.0032021999999999,0.00050989,0.0,0 STARLINK-3861,1 52503U 22049BE  22254.25001157  .00050989  00000-0  32022-2 0  9990,2 52503  53.2147   4.7899 0001596  57.8033 216.6518 15.08800720 20140,6918.0,95.44,540.97,538.761,0.0
52503.0,STARLINK-3861,PAYLOAD,2022-09-11 14:00:01,15.08831748,0.0001749,53.2146,3.2953,51.7502,234.2766,0.0002061,2.993e-05,0.0,0 STARLINK-3861,1 52503U 22049BE  22254.58334491  .00002993  00000-0  20610-3 0  9999,2 52503  53.2146   3.2953 0001749  51.7502 234.2766 15.08831748  1300,6917.906,95.438,540.981,538.561,0.0
52503.0,STARLINK-3861,PAYLOAD,2022-09-11 22:00:00,15.08869381,0.0001665999999999,53.2144,1.7985,49.2554,248.351,-0.00361,-0.00057331,0.0,0 STARLINK-3861,1 52503U 22049BE  22254.91667824 -.00057331  00000-0 -36100-2 0  9993,2 52503  53.2144   1.7985 0001666  49.2554 248.3510 15.08869381 20244,6917.791,95.436,540.808,538.503,0.0
52503.0,STARLINK-3861,PAYLOAD,2022-09-12 12:00:00,15.08842297,0.0001793,53.2144,359.18,55.7162,172.2103,-0.00049441,-8.149e-05,0.0,0 STARLINK-3861,1 52503U 22049BE  22255.50001157 -.00008149  00000-0 -49441-3 0  9996,2 52503  53.2144 359.1800 0001793  55.7162 172.2103 15.08842297 20327,6917.873000000001,95.437,540.979,538.498,0.0
52503.0,STARLINK-3861,PAYLOAD,2022-09-12 14:00:01,15.088364000000002,0.0001851,53.2146,358.8061,54.0357,266.7908,0.00041667,6.349e-05,0.0,0 STARLINK-3861,1 52503U 22049BE  22255.58334491  .00006349  00000-0  41667-3 0  9994,2 52503  53.2146 358.8061 0001851  54.0357 266.7908 15.08836400  1305,6917.891,95.438,541.0369999999998,538.476,0.0
52503.0,STARLINK-3861,PAYLOAD,2022-09-12 22:00:00,15.08879809,0.0001759,53.2139,357.3092,52.8295,279.5869,-0.0037974,-0.00060284,0.0,0 STARLINK-3861,1 52503U 22049BE  22255.91667824 -.00060284  00000-0 -37974-2 0  9995,2 52503  53.2139 357.3092 0001759  52.8295 279.5869 15.08879809  1307,6917.759,95.435,540.841,538.4069999999998,0.0
52503.0,STARLINK-3861,PAYLOAD,2022-09-13 14:00:01,15.0885209,0.0001691,53.2138,354.3171,50.2385,305.393,-0.0026961,-0.00042955,0.0,0 STARLINK-3861,1 52503U 22049BE  22256.58334491 -.00042955  00000-0 -26961-2 0  9999,2 52503  53.2138 354.3171 0001691  50.2385 305.3930 15.08852090  1308,6917.843000000003,95.437,540.878,538.539,0.0
52503.0,STARLINK-3861,PAYLOAD,2022-09-13 16:00:00,15.0883,0.0001695,53.2142,353.9427,48.347,40.1912,-0.00059101,-9.679e-05,0.0,0 STARLINK-3861,1 52503U 22049BE  22256.66667824 -.00009679  00000-0 -59101-3 0  9996,2 52503  53.2142 353.9427 0001695  48.3470  40.1912 15.08830000 20503,6917.911,95.438,540.9490000000002,538.6030000000002,0.0
52503.0,STARLINK-3861,PAYLOAD,2022-09-13 22:00:00,15.0885086,0.0001629999999999,53.2148,352.8176,47.5863,319.634,-0.0052982,-0.00083656,0.0,0 STARLINK-3861,1 52503U 22049BE  22256.91667824 -.00083656  00000-0 -52982-2 0  9990,2 52503  53.2148 352.8176 0001630  47.5863 319.6340 15.08850860  1306,6917.847,95.437,540.84,538.585,0.0
